{
"type": "FeatureCollection",
"name": "baato_label_national_park",
"crs": { "type": "name", "properties": { "name": "urn:ogc:def:crs:OGC:1.3:CRS84" } },
"features": [
{ "type": "Feature", "properties": { "id": "relation/1268964", "alt_name": null, "boundary": "national_park", "heritage": null, "heritage:operator": null, "leisure": null, "name": "लाङ्टाङ् राष्ट्रिय निकुञ्‍ज", "name:en": "Langtang National Park", "name:ne": "लाङ्टाङ् राष्ट्रिय निकुञ्‍ज", "protect_class": "2", "start_date": null, "type": "boundary", "whc:criteria": null, "wikidata": "Q4351267", "wikipedia": null }, "geometry": { "type": "Point", "coordinates": [ 85.596249351813981, 28.17412075 ] } },
{ "type": "Feature", "properties": { "id": "relation/3531450", "alt_name": null, "boundary": "national_park", "heritage": "1", "heritage:operator": "whc", "leisure": "nature_reserve", "name": "सगरमाथा राष्ट्रिय निकुञ्ज", "name:en": "Sagarmatha National Park", "name:ne": "सगरमाथा राष्ट्रिय निकुञ्ज", "protect_class": "2", "start_date": null, "type": "boundary", "whc:criteria": "vii", "wikidata": "Q2211959", "wikipedia": "en:Sagarmatha National Park" }, "geometry": { "type": "Point", "coordinates": [ 86.75059360542879, 27.94256895 ] } },
{ "type": "Feature", "properties": { "id": "relation/4464442", "alt_name": null, "boundary": "national_park", "heritage": null, "heritage:operator": null, "leisure": null, "name": "शे-फोकसुण्डो राष्ट्रिय निकुञ्‍ज", "name:en": "Shey Phoksundo National Park", "name:ne": "शे-फोकसुण्डो राष्ट्रिय निकुन्ज", "protect_class": null, "start_date": "1984", "type": "multipolygon", "whc:criteria": null, "wikidata": "Q3236458", "wikipedia": "en:Shey Phoksundo National Park" }, "geometry": { "type": "Point", "coordinates": [ 82.836443688938061, 29.37281895 ] } },
{ "type": "Feature", "properties": { "id": "relation/4467188", "alt_name": null, "boundary": "national_park", "heritage": null, "heritage:operator": null, "leisure": null, "name": "रारा राष्ट्रिय निकुञ्‍ज", "name:en": "Rara National Park", "name:ne": "रारा राष्ट्रिय निकुञ्‍ज", "protect_class": null, "start_date": "1976", "type": "boundary", "whc:criteria": null, "wikidata": "Q3505873", "wikipedia": null }, "geometry": { "type": "Point", "coordinates": [ 82.075522649516728, 29.4947958 ] } },
{ "type": "Feature", "properties": { "id": "relation/4497739", "alt_name": null, "boundary": "protected_area", "heritage": null, "heritage:operator": null, "leisure": "nature_reserve", "name": "अन्‍नपूर्ण संरक्षण क्षेत्र", "name:en": "Annapurna Conservation Area", "name:ne": "अन्‍नपूर्ण संरक्षण क्षेत्र", "protect_class": "5", "start_date": null, "type": "boundary", "whc:criteria": null, "wikidata": "Q2982581", "wikipedia": null }, "geometry": { "type": "Point", "coordinates": [ 83.980653402376717, 28.78744575 ] } },
{ "type": "Feature", "properties": { "id": "relation/4497740", "alt_name": null, "boundary": "protected_area", "heritage": null, "heritage:operator": null, "leisure": "nature_reserve", "name": "मनास्लु संरक्षण क्षेत्र", "name:en": "Manaslu Conservation Area", "name:ne": "मनास्लु संरक्षण क्षेत्र", "protect_class": "5", "start_date": null, "type": "boundary", "whc:criteria": null, "wikidata": "Q6747003", "wikipedia": null }, "geometry": { "type": "Point", "coordinates": [ 84.875395407414771, 28.54571295 ] } },
{ "type": "Feature", "properties": { "id": "relation/4815272", "alt_name": null, "boundary": "national_park", "heritage": null, "heritage:operator": null, "leisure": null, "name": "पर्सा राष्ट्रिय निकुञ्‍ज", "name:en": "Parsa National Park", "name:ne": "पर्सा राष्ट्रिय निकुञ्‍ज", "protect_class": "2", "start_date": "2012", "type": "boundary", "whc:criteria": null, "wikidata": null, "wikipedia": null }, "geometry": { "type": "Point", "coordinates": [ 84.780044882766703, 27.50020955 ] } },
{ "type": "Feature", "properties": { "id": "relation/4860664", "alt_name": null, "boundary": "national_park", "heritage": null, "heritage:operator": null, "leisure": null, "name": "शिवपुरी नागार्जुन राष्ट्रिय निकुञ्‍ज", "name:en": "ShivaPuri Nagarjuna National Park", "name:ne": "शिवपुरी नागार्जुन राष्ट्रिय निकुञ्ज", "protect_class": "2", "start_date": null, "type": "boundary", "whc:criteria": null, "wikidata": null, "wikipedia": null }, "geometry": { "type": "Point", "coordinates": [ 85.377288265263218, 27.7950432 ] } },
{ "type": "Feature", "properties": { "id": "relation/6083166", "alt_name": "", "boundary": "national_park", "heritage": "1", "heritage:operator": "whc", "leisure": null, "name": "चितवन राष्ट्रिय निकुञ्‍ज", "name:en": "Chitwan National Park", "name:ne": "चितवन राष्ट्रिय निकुञ्‍ज", "protect_class": "2", "start_date": null, "type": "boundary", "whc:criteria": "vii, ix, x (natural)", "wikidata": "Q1075023", "wikipedia": "en:Chitwan National Park" }, "geometry": { "type": "Point", "coordinates": [ 84.43829352024234, 27.51682135 ] } },
{ "type": "Feature", "properties": { "id": "relation/7569314", "alt_name": null, "boundary": "protected_area", "heritage": null, "heritage:operator": null, "leisure": null, "name": "Koshi Tappu Wildlife Reserve", "name:en": "Koshi Tappu Wildlife Reserve", "name:ne": null, "protect_class": "4", "start_date": null, "type": "boundary", "whc:criteria": null, "wikidata": "Q6433109", "wikipedia": "en:Koshi Tappu Wildlife Reserve" }, "geometry": { "type": "Point", "coordinates": [ 86.996007725124528, 26.6416837 ] } },
{ "type": "Feature", "properties": { "id": "relation/10458351", "alt_name": null, "boundary": "national_park", "heritage": null, "heritage:operator": null, "leisure": null, "name": "शुक्लाफाँट राष्ट्रिय निकुञ्‍ज", "name:en": "Shuklaphanta National Park", "name:ne": null, "protect_class": null, "start_date": null, "type": "boundary", "whc:criteria": null, "wikidata": null, "wikipedia": null }, "geometry": { "type": "Point", "coordinates": [ 80.209050166240317, 28.8939625 ] } },
{ "type": "Feature", "properties": { "id": "relation/15046246", "alt_name": null, "boundary": "protected_area", "heritage": null, "heritage:operator": null, "leisure": "nature_reserve", "name": "कञ्‍चनजङ्‍गा संरक्षण क्षेत्र", "name:en": "Kanchanjunga Conservation Area", "name:ne": "कञ्‍चनजङ्‍गा संरक्षण क्षेत्र", "protect_class": "5", "start_date": "1998", "type": "boundary", "whc:criteria": null, "wikidata": null, "wikipedia": null }, "geometry": { "type": "Point", "coordinates": [ 87.915883519435681, 27.71731755 ] } },
{ "type": "Feature", "properties": { "id": "relation/15046364", "alt_name": null, "boundary": "national_park", "heritage": null, "heritage:operator": null, "leisure": null, "name": "मकालु बरुण राष्ट्रिय निकुञ्‍ज", "name:en": "Makalu Barun National Park", "name:ne": "मकालु बरुण राष्ट्रिय निकुञ्‍ज", "protect_class": "2", "start_date": null, "type": "boundary", "whc:criteria": null, "wikidata": null, "wikipedia": null }, "geometry": { "type": "Point", "coordinates": [ 87.108106439229459, 27.7567727 ] } },
{ "type": "Feature", "properties": { "id": "relation/15046524", "alt_name": null, "boundary": "protected_area", "heritage": null, "heritage:operator": null, "leisure": "nature_reserve", "name": "गौरीशंकर संरक्षण क्षेत्र", "name:en": "Gaurishankar Conservation Area", "name:ne": "गौरीशंकर संरक्षण क्षेत्र", "protect_class": null, "start_date": "2010", "type": "boundary", "whc:criteria": null, "wikidata": null, "wikipedia": null }, "geometry": { "type": "Point", "coordinates": [ 86.218662303280297, 27.87106785 ] } },
{ "type": "Feature", "properties": { "id": "way/294497219", "alt_name": null, "boundary": "national_park", "heritage": null, "heritage:operator": null, "leisure": null, "name": "खप्तड राष्ट्रिय निकुञ्‍ज", "name:en": "Khaptad National Park", "name:ne": "खप्तड राष्ट्रिय निकुन्ज", "protect_class": null, "start_date": "1984", "type": null, "whc:criteria": null, "wikidata": "Q2625399", "wikipedia": "en:Khaptad National Park" }, "geometry": { "type": "Point", "coordinates": [ 81.115968854361, 29.37023355 ] } },
{ "type": "Feature", "properties": { "id": "way/294497796", "alt_name": null, "boundary": "national_park", "heritage": null, "heritage:operator": null, "leisure": null, "name": "बर्दिया राष्ट्रिय निकुञ्‍ज", "name:en": "Bardiya National Park", "name:ne": "बर्दिया राष्ट्रिय निकुञ्‍ज", "protect_class": "2", "start_date": "1988", "type": null, "whc:criteria": null, "wikidata": null, "wikipedia": null }, "geometry": { "type": "Point", "coordinates": [ 81.456577787290286, 28.4806398 ] } },
{ "type": "Feature", "properties": { "id": "way/323146126", "alt_name": null, "boundary": "protected_area", "heritage": null, "heritage:operator": null, "leisure": "nature_reserve", "name": "ढोरपाटन शिकार आरक्ष", "name:en": "Dhorpatan Hunting Reserve", "name:ne": "ढोरपाटन शिकार आरक्ष", "protect_class": "4", "start_date": "1987", "type": null, "whc:criteria": null, "wikidata": "Q5269784", "wikipedia": null }, "geometry": { "type": "Point", "coordinates": [ 82.996023182852696, 28.64713095 ] } },
{ "type": "Feature", "properties": { "id": "way/1124634291", "alt_name": null, "boundary": "national_park", "heritage": null, "heritage:operator": null, "leisure": null, "name": "बाँके राष्ट्रिय निकुञ्‍ज", "name:en": "Banke National Park", "name:ne": "बाँके राष्ट्रिय निकुञ्‍ज", "protect_class": "2", "start_date": "2010", "type": null, "whc:criteria": null, "wikidata": null, "wikipedia": null }, "geometry": { "type": "Point", "coordinates": [ 81.892416062898661, 28.1585522 ] } },
{ "type": "Feature", "properties": { "id": "way/1124671305", "alt_name": null, "boundary": "protected_area", "heritage": null, "heritage:operator": null, "leisure": "nature_reserve", "name": "अपि नम्पा संरक्षण क्षेत्र", "name:en": "Api Nampa Conservation Area", "name:ne": "अपि नम्पा संरक्षण क्षेत्र", "protect_class": "6", "start_date": "2010", "type": null, "whc:criteria": null, "wikidata": null, "wikipedia": null }, "geometry": { "type": "Point", "coordinates": [ 80.804048544832256, 29.9508431 ] } },
{ "type": "Feature", "properties": { "id": "way/1124772307", "alt_name": "Black Buck Conservation Area", "boundary": "protected_area", "heritage": null, "heritage:operator": null, "leisure": "nature_reserve", "name": "कृष्णसार संरक्षण क्षेत्र", "name:en": "Krishnasar Conservation Area", "name:ne": "कृष्णसार संरक्षण क्षेत्र", "protect_class": null, "start_date": "2009", "type": null, "whc:criteria": null, "wikidata": null, "wikipedia": null }, "geometry": { "type": "Point", "coordinates": [ 81.331871900707199, 28.24801975 ] } }
]
}
